[{"OBJECT_NAME":"ION SCV-017","OBJECT_ID":"2025-052W","EPOCH":"2026-03-09T17:11:44.577024","MEAN_MOTION":15.26881798,"ECCENTRICITY":0.0023746,"INCLINATION":97.4016,"RA_OF_ASC_NODE":324.7516,"ARG_OF_PERICENTER":44.9875,"MEAN_ANOMALY":315.3282,"EPHEMERIS_TYPE":0,"CLASSIFICATION_TYPE":"U","NORAD_CAT_ID":63230,"ELEMENT_SET_NO":999,"REV_AT_EPOCH":5485,"BSTAR":0.00024539061,"MEAN_MOTION_DOT":6.457e-5,"MEAN_MOTION_DDOT":0},{"OBJECT_NAME":"STARLINK-34627","OBJECT_ID":"2025-161B","EPOCH":"2026-03-09T22:00:57.788064","MEAN_MOTION":15.30211152,"ECCENTRICITY":7.642e-5,"INCLINATION":53.1584,"RA_OF_ASC_NODE":293.2258,"ARG_OF_PERICENTER":115.0738,"MEAN_ANOMALY":245.0342,"EPHEMERIS_TYPE":0,"CLASSIFICATION_TYPE":"U","NORAD_CAT_ID":65016,"ELEMENT_SET_NO":999,"REV_AT_EPOCH":3547,"BSTAR":0.00093032389,"MEAN_MOTION_DOT":0.00027305,"MEAN_MOTION_DDOT":0}]
